satname,norad_id,inclination_deg,eccentricity,mean_motion_rev_per_day,perigee_km,apogee_km,l1,l2
STARLINK-1183,45088,53.0543,0.0001276,15.0641735,546.2747155066072,548.0420508883981,1 45088U 20006AW  25338.15986583  .00006802  00000+0  47488-3 0  9998,2 45088  53.0543 315.4686 0001276  87.5785 272.5350 15.06417350322627
STARLINK-1142,45093,53.0263,0.0008763,15.80936526,321.91458668424184,333.66739608193984,1 45093U 20006BB  25338.75002315  .00557976  00000+0  26406-2 0  9991,2 45093  53.0263 230.5391 0008763 161.1762  29.6810 15.80936526  5997
STARLINK-1152,45096,53.0482,0.0004932,15.27555093,479.73970380509127,486.5076513374479,1 45096U 20006BE  25338.58981425  .00068727  00000+0  25054-2 0  9992,2 45096  53.0482 291.1089 0004932  13.0250 347.0875 15.27555093323001
STARLINK-1184,45098,53.0587,0.0001724,15.0638553,546.061969022091,548.4498444963419,1 45098U 20006BG  25338.63906183  .00000275  00000+0  37357-4 0  9993,2 45098  53.0587 313.3208 0001724 109.4157 250.7018 15.06385530322698
STARLINK-1193,45100,53.0546,0.0001214,15.06416725,546.319567604317,548.001029788441,1 45100U 20006BJ  25338.23727069  .00006119  00000+0  42910-3 0  9990,2 45100  53.0546 315.1155 0001214  77.2210 282.8915 15.06416725322631
STARLINK-1143,45179,53.0535,0.0004758,15.44835724,428.62061047210955,435.1010043856586,1 45179U 20012B   25338.65398426  .00041380  00000+0  87266-3 0  9992,2 45179  53.0535  68.1285 0004758 162.1781 197.9392 15.44835724321154
STARLINK-1202,45183,53.0542,0.0001488,15.06397496,546.1887393408924,548.2497253556394,1 45183U 20012F   25338.69800955  .00000570  00000+0  57182-4 0  9997,2 45183  53.0542 113.0533 0001488  61.8763 298.2376 15.06397496320529
STARLINK-1216,45185,53.0544,0.0001261,15.06400988,546.3352437909152,548.0818159335458,1 45185U 20012H   25338.69065152  .00005138  00000+0  36356-3 0  9995,2 45185  53.0544 113.0839 0001261  91.5560 268.5573 15.06400988320469
STARLINK-1225,45187,53.0533,0.0001081,15.06398851,546.4664489002389,547.9637100198197,1 45187U 20012K   25338.64272412  .00000669  00000+0  63804-4 0  9994,2 45187  53.0533 113.2991 0001081  90.1248 269.9865 15.06398851320507
STARLINK-1230,45189,53.0543,0.0001277,15.06401296,546.3232193841668,548.0919523914017,1 45189U 20012M   25338.64640749  .00001176  00000+0  97850-4 0  9990,2 45189  53.0543 113.2869 0001277  88.9959 271.1177 15.06401296317735
STARLINK-1234,45190,53.0513,0.0005563,15.41852784,436.8479834266809,444.434556129635,1 45190U 20012N   25338.75002315  .00106343  00000+0  24432-2 0  9991,2 45190  53.0513  62.0196 0005563 325.2130 263.6147 15.41852784  5905
STARLINK-1269,45197,53.0542,0.0001458,15.06398196,546.207370318095,548.2268035698489,1 45197U 20012V   25338.65746479 -.00000088  00000+0  12957-4 0  9994,2 45197  53.0542 113.2341 0001458  93.3735 266.7421 15.06398196320483
STARLINK-1154,45198,53.0553,0.0001185,15.06393544,546.4106885702613,548.0520008679596,1 45198U 20012W   25338.58191106  .00005841  00000+0  41075-3 0  9991,2 45198  53.0553  93.5726 0001185  55.4968 304.6133 15.06393544320728
STARLINK-1199,45201,53.0554,0.0001323,15.06397254,546.3037493178999,548.1361987732325,1 45201U 20012Z   25338.59296275  .00000724  00000+0  67510-4 0  9998,2 45201  53.0554  93.5264 0001323  85.2608 274.8532 15.06397254320786
STARLINK-1209,45206,53.0537,0.0005773,15.3537289,455.8655845003268,463.76068172401756,1 45206U 20012AE  25338.71154041  .00098889  00000+0  28099-2 0  9997,2 45206  53.0537  64.3301 0005773 330.3236  29.7438 15.35372890320259
STARLINK-1210,45207,53.0209,0.0003296,15.65630897,369.20026258326925,373.6495737997411,1 45207U 20012AF  25338.75002315  .00018614  00000+0  18639-3 0  9996,2 45207  53.0209  19.2352 0003296 148.9917 170.9924 15.65630897  5850
STARLINK-1231,45212,53.0504,0.0004239,15.14723837,518.8922041135838,524.7419851950308,1 45212U 20012AL  25338.58239472  .00094720  00000+0  50020-2 0  9990,2 45212  53.0504  90.2311 0004239 142.9598 217.1688 15.14723837320789
STARLINK-1271,45217,53.057,0.0001531,15.06398419,546.1561318737376,548.2766750858827,1 45217U 20012AR  25338.64456601  .00001975  00000+0  15147-3 0  9999,2 45217  53.0570  93.2937 0001531 100.1759 259.9403 15.06398419320796
STARLINK-1191,45222,53.0552,0.0001724,15.06401364,546.0134481072064,548.401306848561,1 45222U 20012AW  25338.65378221  .00002106  00000+0  16025-3 0  9990,2 45222  53.0552  73.2500 0001724  84.3383 275.7802 15.06401364321071
STARLINK-1212,45223,53.0556,0.0001309,15.0640478,546.2903817569077,548.1034341740142,1 45223U 20012AX  25338.53959830  .00000657  00000+0  62972-4 0  9991,2 45223  53.0556  74.4197 0001309  91.9078 268.2061 15.06404780321052
STARLINK-1215,45225,53.055,0.0001292,15.06407932,546.2924957145751,548.0819995001575,1 45225U 20012AZ  25338.56162372  .00002659  00000+0  19726-3 0  9995,2 45225  53.0550  73.6645 0001292  94.0426 266.0711 15.06407932321015
STARLINK-1221,45227,53.069,0.0005436,15.38143075,447.8879542530922,455.3132449713912,1 45227U 20012BB  25338.38331108  .00029931  00000+0  79222-3 0  9991,2 45227  53.0690 359.9382 0005436  67.3441 292.8136 15.38143075322024
STARLINK-1222,45228,53.0571,8.6e-05,15.10982288,532.6086342253102,533.7973847069379,1 45228U 20012BC  25338.57085560  .00006843  00000+0  42229-3 0  9995,2 45228  53.0571  73.3725 0000860  71.8288 288.2796 15.10982288320954
STARLINK-1226,45229,53.0546,0.0001223,15.06378925,546.4291725026706,548.1231285592903,1 45229U 20012BD  25338.55794297 -.00005789  00000+0 -37026-3 0  9997,2 45229  53.0546  73.6803 0001223  84.6226 275.4902 15.06378925320954
STARLINK-1227,45230,53.0564,0.0001407,15.06396222,546.2487388170703,548.1975351596193,1 45230U 20012BE  25338.55425705  .00000814  00000+0  73512-4 0  9997,2 45230  53.0564  73.6993 0001407 101.1530 258.9617 15.06396222321076
STARLINK-1246,45235,53.0546,0.0001312,15.06408169,546.2779187969845,548.0951236889578,1 45235U 20012BK  25338.70169521  .00000112  00000+0  26401-4 0  9996,2 45235  53.0546 113.0360 0001312  81.2047 278.9091 15.06408169320547
STARLINK-1270,45237,53.0544,0.0001413,15.06399791,546.2336466515026,548.1907503349967,1 45237U 20012BM  25338.50634455  .00002048  00000+0  15636-3 0  9996,2 45237  53.0544  73.9100 0001413  91.6039 268.5112 15.06399791321057
STARLINK-1279,45360,53.0497,0.0009616,15.39651351,440.5763120232459,453.70268378401397,1 45360U 20019A   25338.65699940  .00116035  00000+0  28600-2 0  9992,2 45360  53.0497 193.3142 0009616 121.3343 238.8603 15.39651351315952
STARLINK-1301,45361,53.0493,0.0009007,15.42439444,432.7720492633034,445.052281629939,1 45361U 20019B   25338.69190663  .00127739  00000+0  28657-2 0  9990,2 45361  53.0493 202.2370 0009007 116.2114 243.9817 15.42439444315848
STARLINK-1306,45362,53.0388,0.0003823,15.83684958,317.46942783920167,322.5908464322556,1 45362U 20019C   25338.75002315  .00201136  00000+0  87587-3 0  9996,2 45362  53.0388 182.9900 0003823  88.6029 184.9882 15.83684958  6011
STARLINK-1262,45366,53.054,0.0001588,15.06415373,546.0647044390407,548.2641801771179,1 45366U 20019G   25338.41788625  .00006370  00000+0  44595-3 0  9993,2 45366  53.0540 234.3084 0001588  92.2402 267.8769 15.06415373315377
STARLINK-1273,45367,53.0527,0.0002543,15.06415207,545.403846779408,548.9260553517197,1 45367U 20019H   25338.70539635  .00010339  00000+0  71169-3 0  9998,2 45367  53.0527 233.0169 0002543  79.7279 280.3997 15.06415207315411
STARLINK-1276,45368,53.0537,0.0001151,15.06414998,546.3684892814654,547.9626939380532,1 45368U 20019J   25338.41051979  .00009597  00000+0  66204-3 0  9995,2 45368  53.0537 234.3448 0001151  83.9298 276.1822 15.06414998315370
STARLINK-1277,45369,53.0538,0.0001367,15.06423393,546.193177343157,548.0865480374168,1 45369U 20019K   25337.93879292  .00009322  00000+0  64349-3 0  9992,2 45369  53.0538 237.0877 0001367  89.2871 270.8274 15.06423393315295
STARLINK-1281,45370,53.054,0.0001321,15.06405885,546.2786851577257,548.1083574814593,1 45370U 20019L   25337.93502347  .00000905  00000+0  79618-4 0  9992,2 45370  53.0540 236.4794 0001321  91.9330 268.1810 15.06405885315305
STARLINK-1300,45374,53.0535,0.0002275,15.06420405,545.5735176884482,548.7245228276661,1 45374U 20019Q   25338.42156760  .00008767  00000+0  60639-3 0  9991,2 45374  53.0535 234.2850 0002275  84.5100 275.6148 15.06420405315373
STARLINK-1302,45375,53.0534,0.0001326,15.06439161,546.1732524094705,548.0098230176718,1 45375U 20019R   25338.10459409  .00030344  00000+0  20451-2 0  9996,2 45375  53.0534 235.7171 0001326 114.4784 245.6344 15.06439161315321
STARLINK-1304,45376,53.0536,0.0001405,15.06454425,546.0717701368303,548.0177462108777,1 45376U 20019S   25338.45472709  .00034638  00000+0  23294-2 0  9991,2 45376  53.0536 234.1405 0001405 110.4655 249.6485 15.06454425315373
STARLINK-1305,45377,53.0515,0.0008355,15.36108478,451.91870727638525,463.3412739176729,1 45377U 20019T   25337.98916433  .00109642  00000+0  30360-2 0  9996,2 45377  53.0515 227.5189 0008355 109.3327 250.8579 15.36108478315432
STARLINK-1319,45379,53.0526,0.000669,15.41042618,438.4675712547423,447.594293948564,1 45379U 20019V   25338.42760885  .00140244  00000+0  32917-2 0  9999,2 45379  53.0526 226.7521 0006690 116.1158 244.0535 15.41042618315486
STARLINK-1266,45383,53.0542,0.0001508,15.06413618,546.1254847754371,548.2141573126637,1 45383U 20019Z   25338.07693904  .00011164  00000+0  76693-3 0  9990,2 45383  53.0542 215.8426 0001508  92.9806 267.1356 15.06413618315598
STARLINK-1267,45384,53.0527,0.0001729,15.0639997,546.0142571023935,548.409042665523,1 45384U 20019AA  25338.39401566  .00003029  00000+0  22219-3 0  9993,2 45384  53.0527 215.0745 0001729  92.0324 268.0863 15.06399970315631
STARLINK-1272,45386,53.0507,0.0009209,15.3925883,442.0133095284882,454.5862407809673,1 45386U 20019AC  25338.71013187  .00103354  00000+0  25861-2 0  9996,2 45386  53.0507 203.6185 0009209 121.1692 239.0215 15.39258830315820
